ONEWEB-0264             
1 48982U 21060R   23352.67650516  .00000042  00000+0  75313-4 0  9999
2 48982  87.9083  50.2051 0001762 103.9121 256.2206 13.16592425119657
ONEWEB-0266             
1 48984U 21060T   23352.62266385  .00000059  00000+0  12143-3 0  9992
2 48984  87.9079  50.1985 0001936 101.8537 258.2811 13.16595758119634
ONEWEB-0267             
1 48985U 21060U   23352.70921957  .00000046  00000+0  85944-4 0  9991
2 48985  87.9079  50.1825 0001576 115.9290 244.2004 13.16592842119652
ONEWEB-0268             
1 48986U 21060V   23352.67755314 -.00003545  00000+0 -93093-2 0  9991
2 48986  87.9079  50.1937 0001640 101.6154 258.5161 13.16609705121203
ONEWEB-0269             
1 48987U 21060W   23352.65855359 -.00000031  00000+0 -11384-3 0  9991
2 48987  87.9070  50.2207 0001704  86.8001 273.3325 13.16595040119684
ONEWEB-0270             
1 48988U 21060X   23352.67545146  .00000037  00000+0  63110-4 0  9993
2 48988  87.9076  50.2050 0002096 122.2201 237.9134 13.16596043121039
ONEWEB-0271             
1 48989U 21060Y   23352.73879261  .00000316  00000+0  79266-3 0  9997
2 48989  87.9072  50.1689 0001704 107.4128 252.7189 13.16590338119731
ONEWEB-0272             
1 48990U 21060Z   23352.61000450  .00000084  00000+0  18719-3 0  9990
2 48990  87.9080  50.2195 0001694 112.0592 248.0719 13.16592861119662
